{"type": "FeatureCollection", "features": [ {"type": "Feature", "properties": {"norad_id": 32289, "name": "YAOGAN-3", "group": "resource", "lat": -55.02351259086574, "lon": 38.82494348763477, "alt_km": 605.8435685908626, "timestamp": "2025-12-26T23:26:41.810217+00:00", "meta": {"OBJECT_NAME": "YAOGAN-3", "OBJECT_ID": "2007-055A", "EPOCH": "2025-12-26T18:51:34.517952", "MEAN_MOTION": 14.89923254, "ECCENTRICITY": 0.0001205, "INCLINATION": 97.8358, "RA_OF_ASC_NODE": 27.283, "ARG_OF_PERICENTER": 81.9317, "MEAN_ANOMALY": 278.2037, "EPHEMERIS_TYPE": 0, "CLASSIFICATION_TYPE": "U", "NORAD_CAT_ID": 32289, "ELEMENT_SET_NO": 999, "REV_AT_EPOCH": 98018, "BSTAR": 5.6626e-05, "MEAN_MOTION_DOT": 4.89e-06, "MEAN_MOTION_DDOT": 0}, "tle": {"line1": "1 32289U 07055A   25360.78581618  .00000489  00000+0  56626-4 0  9990", "line2": "2 32289  97.8358  27.2830 0001205  81.9317 278.2037 14.89923254980187"}}, "geometry": {"type": "Point", "coordinates": [38.82494348763477, -55.02351259086574]}}, {"type": "Feature", "properties": {"norad_id": 32376, "name": "COSMO-SKYMED 2", "group": "resource", "lat": -7.446756952148113, "lon": 1.0488881135955321, "alt_km": 626.6940050152407, "timestamp": "2025-12-26T23:26:41.810227+00:00", "meta": {"OBJECT_NAME": "COSMO-SKYMED 2", "OBJECT_ID": "2007-059A", "EPOCH": "2025-12-26T16:07:16.398912", "MEAN_MOTION": 14.82159872, "ECCENTRICITY": 0.00012951, "INCLINATION": 97.8806, "RA_OF_ASC_NODE": 181.7858, "ARG_OF_PERICENTER": 83.13, "MEAN_ANOMALY": 277.006, "EPHEMERIS_TYPE": 0, "CLASSIFICATION_TYPE": "U", "NORAD_CAT_ID": 32376, "ELEMENT_SET_NO": 999, "REV_AT_EPOCH": 97644, "BSTAR": 8.3902315e-05, "MEAN_MOTION_DOT": 6.16e-06, "MEAN_MOTION_DDOT": 0}, "tle": {"line1": "1 32376U 07059A   25360.67171758  .00000616  00000+0  83902-4 0  9998", "line2": "2 32376  97.8806 181.7858 0001295  83.1300 277.0060 14.82159872976440"}}, "geometry": {"type": "Point", "coordinates": [1.0488881135955321, -7.446756952148113]}}, {"type": "Feature", "properties": {"norad_id": 32382, "name": "RADARSAT-2", "group": "resource", "lat": -13.073023299690696, "lon": 7.368832407536414, "alt_km": 796.3422151292461, "timestamp": "2025-12-26T23:26:41.810236+00:00", "meta": {"OBJECT_NAME": "RADARSAT-2", "OBJECT_ID": "2007-061A", "EPOCH": "2025-12-26T15:06:36.544896", "MEAN_MOTION": 14.29986012, "ECCENTRICITY": 0.00011291, "INCLINATION": 98.58, "RA_OF_ASC_NODE": 5.0175, "ARG_OF_PERICENTER": 84.8356, "MEAN_ANOMALY": 275.2955, "EPHEMERIS_TYPE": 0, "CLASSIFICATION_TYPE": "U", "NORAD_CAT_ID": 32382, "ELEMENT_SET_NO": 999, "REV_AT_EPOCH": 94129, "BSTAR": 0.00010976, "MEAN_MOTION_DOT": 2.39e-06, "MEAN_MOTION_DDOT": 0}, "tle": {"line1": "1 32382U 07061A   25360.62958964  .00000239  00000+0  10976-3 0  9996", "line2": "2 32382  98.5800   5.0175 0001129  84.8356 275.2955 14.29986012941297"}}, "geometry": {"type": "Point", "coordinates": [7.368832407536414, -13.073023299690696]}}, {"type": "Feature", "properties": {"norad_id": 32783, "name": "CARTOSAT-2A", "group": "resource", "lat": 16.918985416070306, "lon": -127.25953348018939, "alt_km": 640.085584916993, "timestamp": "2025-12-26T23:26:41.810246+00:00", "meta": {"OBJECT_NAME": "CARTOSAT-2A", "OBJECT_ID": "2008-021A", "EPOCH": "2025-12-26T17:50:21.369696", "MEAN_MOTION": 14.78954878, "ECCENTRICITY": 0.0010893, "INCLINATION": 97.7908, "RA_OF_ASC_NODE": 50.1274, "ARG_OF_PERICENTER": 317.854, "MEAN_ANOMALY": 42.1833, "EPHEMERIS_TYPE": 0, "CLASSIFICATION_TYPE": "U", "NORAD_CAT_ID": 32783, "ELEMENT_SET_NO": 999, "REV_AT_EPOCH": 95331, "BSTAR": 6.0401e-05, "MEAN_MOTION_DOT": 3.96e-06, "MEAN_MOTION_DDOT": 0}, "tle": {"line1": "1 32783U 08021A   25360.74330289  .00000396  00000+0  60401-4 0  9998", "line2": "2 32783  97.7908  50.1274 0010893 317.8540  42.1833 14.78954878953316"}}, "geometry": {"type": "Point", "coordinates": [-127.25953348018939, 16.918985416070306]}}, {"type": "Feature", "properties": {"norad_id": 33320, "name": "HUANJING 1A (HJ-1A)", "group": "resource", "lat": -74.60274535820267, "lon": 139.44557352862117, "alt_km": 626.3098341886234, "timestamp": "2025-12-26T23:26:41.810255+00:00", "meta": {"OBJECT_NAME": "HUANJING 1A (HJ-1A)", "OBJECT_ID": "2008-041A", "EPOCH": "2025-12-26T17:26:02.395968", "MEAN_MOTION": 14.83437692, "ECCENTRICITY": 0.0019018, "INCLINATION": 97.6554, "RA_OF_ASC_NODE": 348.4412, "ARG_OF_PERICENTER": 349.6138, "MEAN_ANOMALY": 10.4681, "EPHEMERIS_TYPE": 0, "CLASSIFICATION_TYPE": "U", "NORAD_CAT_ID": 33320, "ELEMENT_SET_NO": 999, "REV_AT_EPOCH": 93283, "BSTAR": 0.00023291, "MEAN_MOTION_DOT": 1.867e-05, "MEAN_MOTION_DDOT": 0}, "tle": {"line1": "1 33320U 08041A   25360.72641662  .00001867  00000+0  23291-3 0  9995", "line2": "2 33320  97.6554 348.4412 0019018 349.6138  10.4681 14.83437692932830"}}, "geometry": {"type": "Point", "coordinates": [139.44557352862117, -74.60274535820267]}}, {"type": "Feature", "properties": {"norad_id": 33321, "name": "HUANJING 1B (HJ-1B)", "group": "resource", "lat": 82.2500856287576, "lon": -88.2228917950004, "alt_km": 598.8490281094355, "timestamp": "2025-12-26T23:26:41.810264+00:00", "meta": {"OBJECT_NAME": "HUANJING 1B (HJ-1B)", "OBJECT_ID": "2008-041B", "EPOCH": "2025-12-26T18:11:25.767168", "MEAN_MOTION": 14.82859441, "ECCENTRICITY": 0.0037654, "INCLINATION": 97.6412, "RA_OF_ASC_NODE": 352.1316, "ARG_OF_PERICENTER": 31.3457, "MEAN_ANOMALY": 328.9991, "EPHEMERIS_TYPE": 0, "CLASSIFICATION_TYPE": "U", "NORAD_CAT_ID": 33321, "ELEMENT_SET_NO": 999, "REV_AT_EPOCH": 93285, "BSTAR": 0.00020785, "MEAN_MOTION_DOT": 1.652e-05, "MEAN_MOTION_DDOT": 0}, "tle": {"line1": "1 33321U 08041B   25360.75793712  .00001652  00000+0  20785-3 0  9990", "line2": "2 33321  97.6412 352.1316 0037654  31.3457 328.9991 14.82859441932856"}}, "geometry": {"type": "Point", "coordinates": [-88.2228917950004, 82.2500856287576]}}, {"type": "Feature", "properties": {"norad_id": 33331, "name": "GEOEYE 1", "group": "resource", "lat": -47.585624282114146, "lon": -116.9178986951057, "alt_km": 682.6332520110336, "timestamp": "2025-12-26T23:26:41.810274+00:00", "meta": {"OBJECT_NAME": "GEOEYE 1", "OBJECT_ID": "2008-042A", "EPOCH": "2025-12-26T17:29:16.230048", "MEAN_MOTION": 14.64718858, "ECCENTRICITY": 0.0003076, "INCLINATION": 98.1236, "RA_OF_ASC_NODE": 71.832, "ARG_OF_PERICENTER": 224.6265, "MEAN_ANOMALY": 135.4691, "EPHEMERIS_TYPE": 0, "CLASSIFICATION_TYPE": "U", "NORAD_CAT_ID": 33331, "ELEMENT_SET_NO": 999, "REV_AT_EPOCH": 92490, "BSTAR": 0.00012672, "MEAN_MOTION_DOT": 6.27e-06, "MEAN_MOTION_DDOT": 0}, "tle": {"line1": "1 33331U 08042A   25360.72866007  .00000627  00000+0  12672-3 0  9994", "line2": "2 33331  98.1236  71.8320 0003076 224.6265 135.4691 14.64718858924903"}}, "geometry": {"type": "Point", "coordinates": [-116.9178986951057, -47.585624282114146]}}, {"type": "Feature", "properties": {"norad_id": 33396, "name": "THEOS", "group": "resource", "lat": -38.442280605744706, "lon": 65.53129953775104, "alt_km": 831.9508969453718, "timestamp": "2025-12-26T23:26:41.810283+00:00", "meta": {"OBJECT_NAME": "THEOS", "OBJECT_ID": "2008-049A", "EPOCH": "2025-12-26T18:33:18.448416", "MEAN_MOTION": 14.20099941, "ECCENTRICITY": 0.0001192, "INCLINATION": 98.5843, "RA_OF_ASC_NODE": 58.4471, "ARG_OF_PERICENTER": 91.1026, "MEAN_ANOMALY": 269.0288, "EPHEMERIS_TYPE": 0, "CLASSIFICATION_TYPE": "U", "NORAD_CAT_ID": 33396, "ELEMENT_SET_NO": 999, "REV_AT_EPOCH": 89349, "BSTAR": 7.8092e-05, "MEAN_MOTION_DOT": 1.24e-06, "MEAN_MOTION_DDOT": 0}, "tle": {"line1": "1 33396U 08049A   25360.77313019  .00000124  00000+0  78092-4 0  9998", "line2": "2 33396  98.5843  58.4471 0001192  91.1026 269.0288 14.20099941893491"}}, "geometry": {"type": "Point", "coordinates": [65.53129953775104, -38.442280605744706]}}, {"type": "Feature", "properties": {"norad_id": 33412, "name": "COSMO-SKYMED 3", "group": "resource", "lat": 80.9933605256098, "lon": 92.05505029958033, "alt_km": 532.5006743325202, "timestamp": "2025-12-26T23:26:41.810293+00:00", "meta": {"OBJECT_NAME": "COSMO-SKYMED 3", "OBJECT_ID": "2008-054A", "EPOCH": "2025-12-26T18:14:30.558624", "MEAN_MOTION": 15.05474289, "ECCENTRICITY": 0.0017156, "INCLINATION": 97.8451, "RA_OF_ASC_NODE": 211.3892, "ARG_OF_PERICENTER": 126.8856, "MEAN_ANOMALY": 233.3945, "EPHEMERIS_TYPE": 0, "CLASSIFICATION_TYPE": "U", "NORAD_CAT_ID": 33412, "ELEMENT_SET_NO": 999, "REV_AT_EPOCH": 93098, "BSTAR": 0.00027734, "MEAN_MOTION_DOT": 3.933e-05, "MEAN_MOTION_DDOT": 0}, "tle": {"line1": "1 33412U 08054A   25360.76007591  .00003933  00000+0  27734-3 0  9994", "line2": "2 33412  97.8451 211.3892 0017156 126.8856 233.3945 15.05474289930984"}}, "geometry": {"type": "Point", "coordinates": [92.05505029958033, 80.9933605256098]}}, {"type": "Feature", "properties": {"norad_id": 33446, "name": "YAOGAN-4", "group": "resource", "lat": -6.576715664940581, "lon": -68.14263261035812, "alt_km": 623.1037298735082, "timestamp": "2025-12-26T23:26:41.810303+00:00", "meta": {"OBJECT_NAME": "YAOGAN-4", "OBJECT_ID": "2008-061A", "EPOCH": "2025-12-26T18:36:57.310848", "MEAN_MOTION": 14.82723581, "ECCENTRICITY": 0.0012963, "INCLINATION": 97.9198, "RA_OF_ASC_NODE": 290.7385, "ARG_OF_PERICENTER": 273.4167, "MEAN_ANOMALY": 86.5564, "EPHEMERIS_TYPE": 0, "CLASSIFICATION_TYPE": "U", "NORAD_CAT_ID": 33446, "ELEMENT_SET_NO": 999, "REV_AT_EPOCH": 92011, "BSTAR": 0.00019776, "MEAN_MOTION_DOT": 1.545e-05, "MEAN_MOTION_DDOT": 0}, "tle": {"line1": "1 33446U 08061A   25360.77566332  .00001545  00000+0  19776-3 0  9997", "line2": "2 33446  97.9198 290.7385 0012963 273.4167  86.5564 14.82723581920118"}}, "geometry": {"type": "Point", "coordinates": [-68.14263261035812, -6.576715664940581]}}]}